start=new Date('2023-05-31T00:00:00.000Z').valueOf();
sats=[{"CLASSIFICATION_TYPE":"U","SITE":"AFETR","BSTAR":"0.00056446000000","MEAN_ELEMENT_THEORY":"SGP4","ECCENTRICITY":"0.00008440","RCS_SIZE":"LARGE","LAUNCH_DATE":"2021-02-04","GP_ID":"232827729","TLE_LINE2":"2 47587  53.0533 244.5279 0000844  64.2698 295.8378 15.06397542128674","RA_OF_ASC_NODE":"244.5279","PERIOD":"95.592","DECAY_DATE":null,"SEMIMAJOR_AXIS":"6925.356","MEAN_ANOMALY":"295.8378","PERIAPSIS":"546.637","REF_FRAME":"TEME","ELEMENT_SET_NO":"999","CENTER_NAME":"EARTH","MEAN_MOTION_DOT":"0.00008136","COUNTRY_CODE":"US","FILE":"3921061","OBJECT_ID":"2021-009AR","MEAN_MOTION_DDOT":"0.0000000000000","NORAD_CAT_ID":"47587","EPOCH":"2023-05-30T11:49:13.242432","OBJECT_NAME":"STARLINK-1991","TLE_LINE1":"1 47587U 21009AR  23150.49251438  .00008136  00000-0  56446-3 0  9996","REV_AT_EPOCH":"12867","EPHEMERIS_TYPE":"0","ARG_OF_PERICENTER":"64.2698","APOAPSIS":"547.806","OBJECT_TYPE":"PAYLOAD","MEAN_MOTION":"15.06397542","INCLINATION":"53.0533","TIME_SYSTEM":"UTC"},{"NORAD_CAT_ID":"47588","OBJECT_NAME":"STARLINK-1993","TLE_LINE1":"1 47588U 21009AS  23150.55056764  .00018478  00000-0  12560-2 0  9997","EPOCH":"2023-05-30T13:12:49.044096","MEAN_MOTION_DOT":"0.00018478","CENTER_NAME":"EARTH","OBJECT_ID":"2021-009AS","MEAN_MOTION_DDOT":"0.0000000000000","COUNTRY_CODE":"US","FILE":"3921192","INCLINATION":"53.0521","OBJECT_TYPE":"PAYLOAD","MEAN_MOTION":"15.06404857","TIME_SYSTEM":"UTC","ARG_OF_PERICENTER":"78.9530","REV_AT_EPOCH":"12794","EPHEMERIS_TYPE":"0","APOAPSIS":"547.814","ECCENTRICITY":"0.00008890","RCS_SIZE":"LARGE","LAUNCH_DATE":"2021-02-04","BSTAR":"0.00125600000000","CLASSIFICATION_TYPE":"U","SITE":"AFETR","MEAN_ELEMENT_THEORY":"SGP4","REF_FRAME":"TEME","PERIAPSIS":"546.583","SEMIMAJOR_AXIS":"6925.334","MEAN_ANOMALY":"281.1559","ELEMENT_SET_NO":"999","TLE_LINE2":"2 47588  53.0521 254.2691 0000889  78.9530 281.1559 15.06404857127940","RA_OF_ASC_NODE":"254.2691","GP_ID":"232851449","DECAY_DATE":null,"PERIOD":"95.592"},{"OBJECT_NAME":"STARLINK-1994","TLE_LINE1":"1 47589U 21009AT  23150.50264968  .00010820  00000-0  74404-3 0  9999","EPOCH":"2023-05-30T12:03:48.932352","NORAD_CAT_ID":"47589","MEAN_MOTION_DDOT":"0.0000000000000","OBJECT_ID":"2021-009AT","FILE":"3921062","COUNTRY_CODE":"US","MEAN_MOTION_DOT":"0.00010820","CENTER_NAME":"EARTH","TIME_SYSTEM":"UTC","INCLINATION":"53.0534","OBJECT_TYPE":"PAYLOAD","MEAN_MOTION":"15.06406388","APOAPSIS":"547.873","ARG_OF_PERICENTER":"84.9696","REV_AT_EPOCH":"12854","EPHEMERIS_TYPE":"0","LAUNCH_DATE":"2021-02-04","RCS_SIZE":"LARGE","ECCENTRICITY":"0.00009810","MEAN_ELEMENT_THEORY":"SGP4","BSTAR":"0.00074404000000","SITE":"AFETR","CLASSIFICATION_TYPE":"U","ELEMENT_SET_NO":"999","REF_FRAME":"TEME","PERIAPSIS":"546.515","MEAN_ANOMALY":"275.1405","SEMIMAJOR_AXIS":"6925.329","PERIOD":"95.592","DECAY_DATE":null,"RA_OF_ASC_NODE":"254.4792","TLE_LINE2":"2 47589  53.0534 254.4792 0000981  84.9696 275.1405 15.06406388128543","GP_ID":"232828238"},{"APOAPSIS":"547.832","REV_AT_EPOCH":"12766","EPHEMERIS_TYPE":"0","ARG_OF_PERICENTER":"81.2151","TIME_SYSTEM":"UTC","MEAN_MOTION":"15.06408660","OBJECT_TYPE":"PAYLOAD","INCLINATION":"53.0537","COUNTRY_CODE":"US","FILE":"3921192","OBJECT_ID":"2021-009AU","MEAN_MOTION_DDOT":"0.0000000000000","CENTER_NAME":"EARTH","MEAN_MOTION_DOT":"0.00018394","EPOCH":"2023-05-30T13:26:05.087904","OBJECT_NAME":"STARLINK-1995","TLE_LINE1":"1 47590U 21009AU  23150.55978111  .00018394  00000-0  12502-2 0  9992","NORAD_CAT_ID":"47590","DECAY_DATE":null,"PERIOD":"95.592","GP_ID":"232849947","TLE_LINE2":"2 47590  53.0537 274.2225 0000931  81.2151 278.8943 15.06408660127664","RA_OF_ASC_NODE":"274.2225","ELEMENT_SET_NO":"999","SEMIMAJOR_AXIS":"6925.322","MEAN_ANOMALY":"278.8943","REF_FRAME":"TEME","PERIAPSIS":"546.542","MEAN_ELEMENT_THEORY":"SGP4","CLASSIFICATION_TYPE":"U","SITE":"AFETR","BSTAR":"0.00125020000000","RCS_SIZE":"LARGE","LAUNCH_DATE":"2021-02-04","ECCENTRICITY":"0.00009310"},{"ELEMENT_SET_NO":"999","SEMIMAJOR_AXIS":"6925.320","MEAN_ANOMALY":"269.6901","PERIAPSIS":"546.711","REF_FRAME":"TEME","DECAY_DATE":null,"PERIOD":"95.592","GP_ID":"232851199","TLE_LINE2":"2 47591  53.0532 254.1977 0000684  90.4167 269.6901 15.06409260127945","RA_OF_ASC_NODE":"254.1977","RCS_SIZE":"LARGE","LAUNCH_DATE":"2021-02-04","ECCENTRICITY":"0.00006840","MEAN_ELEMENT_THEORY":"SGP4","CLASSIFICATION_TYPE":"U","SITE":"AFETR","BSTAR":"0.00062317000000","TIME_SYSTEM":"UTC","MEAN_MOTION":"15.06409260","OBJECT_TYPE":"PAYLOAD","INCLINATION":"53.0532","APOAPSIS":"547.659","REV_AT_EPOCH":"12794","EPHEMERIS_TYPE":"0","ARG_OF_PERICENTER":"90.4167","EPOCH":"2023-05-30T13:34:02.604288","OBJECT_NAME":"STARLINK-1996","TLE_LINE1":"1 47591U 21009AV  23150.56530792  .00009015  00000-0  62317-3 0  9993","NORAD_CAT_ID":"47591","COUNTRY_CODE":"US","FILE":"3921192","OBJECT_ID":"2021-009AV","MEAN_MOTION_DDOT":"0.0000000000000","CENTER_NAME":"EARTH","MEAN_MOTION_DOT":"0.00009015"},{"MEAN_MOTION_DDOT":"0.0000000000000","OBJECT_ID":"2021-009AW","FILE":"3921192","COUNTRY_CODE":"US","MEAN_MOTION_DOT":"0.00006694","CENTER_NAME":"EARTH","TLE_LINE1":"1 47592U 21009AW  23150.66298760  .00006694  00000-0  46783-3 0  9990","OBJECT_NAME":"STARLINK-1997","EPOCH":"2023-05-30T15:54:42.128640","NORAD_CAT_ID":"47592","APOAPSIS":"547.599","ARG_OF_PERICENTER":"111.1357","REV_AT_EPOCH":"12767","EPHEMERIS_TYPE":"0","TIME_SYSTEM":"UTC","INCLINATION":"53.0529","OBJECT_TYPE":"PAYLOAD","MEAN_MOTION":"15.06402051","MEAN_ELEMENT_THEORY":"SGP4","BSTAR":"0.00046783000000","SITE":"AFETR","CLASSIFICATION_TYPE":"U","LAUNCH_DATE":"2021-02-04","RCS_SIZE":"LARGE","ECCENTRICITY":"0.00005660","PERIOD":"95.592","DECAY_DATE":null,"RA_OF_ASC_NODE":"273.7645","TLE_LINE2":"2 47592  53.0529 273.7645 0000566 111.1357 248.9693 15.06402051127671","GP_ID":"232850949","ELEMENT_SET_NO":"999","PERIAPSIS":"546.815","REF_FRAME":"TEME","MEAN_ANOMALY":"248.9693","SEMIMAJOR_AXIS":"6925.342"},{"CENTER_NAME":"EARTH","MEAN_MOTION_DOT":"0.00014513","FILE":"3921192","COUNTRY_CODE":"US","MEAN_MOTION_DDOT":"0.0000000000000","OBJECT_ID":"2021-009AX","NORAD_CAT_ID":"47593","EPOCH":"2023-05-30T15:12:12.963168","OBJECT_NAME":"STARLINK-1998","TLE_LINE1":"1 47593U 21009AX  23150.63348337  .00014513  00000-0  99043-3 0  9990","EPHEMERIS_TYPE":"0","REV_AT_EPOCH":"12767","ARG_OF_PERICENTER":"76.5566","APOAPSIS":"547.845","OBJECT_TYPE":"PAYLOAD","MEAN_MOTION":"15.06427454","INCLINATION":"53.0528","TIME_SYSTEM":"UTC","SITE":"AFETR","CLASSIFICATION_TYPE":"U","BSTAR":"0.00099043000000","MEAN_ELEMENT_THEORY":"SGP4","ECCENTRICITY":"0.00010340","LAUNCH_DATE":"2021-02-04","RCS_SIZE":"LARGE","GP_ID":"232851451","RA_OF_ASC_NODE":"273.8966","TLE_LINE2":"2 47593  53.0528 273.8966 0001034  76.5566 283.5538 15.06427454127672","PERIOD":"95.590","DECAY_DATE":null,"MEAN_ANOMALY":"283.5538","SEMIMAJOR_AXIS":"6925.264","REF_FRAME":"TEME","PERIAPSIS":"546.413","ELEMENT_SET_NO":"999"},{"TLE_LINE2":"2 47594  53.0534 273.7471 0000772  53.0531 307.0528 15.06418164127679","RA_OF_ASC_NODE":"273.7471","GP_ID":"232850448","DECAY_DATE":null,"PERIOD":"95.591","REF_FRAME":"TEME","PERIAPSIS":"546.623","SEMIMAJOR_AXIS":"6925.293","MEAN_ANOMALY":"307.0528","ELEMENT_SET_NO":"999","BSTAR":"0.00192080000000","CLASSIFICATION_TYPE":"U","SITE":"AFETR","MEAN_ELEMENT_THEORY":"SGP4","ECCENTRICITY":"0.00007720","RCS_SIZE":"LARGE","LAUNCH_DATE":"2021-02-04","ARG_OF_PERICENTER":"53.0531","REV_AT_EPOCH":"12767","EPHEMERIS_TYPE":"0","APOAPSIS":"547.693","INCLINATION":"53.0534","MEAN_MOTION":"15.06418164","OBJECT_TYPE":"PAYLOAD","TIME_SYSTEM":"UTC","MEAN_MOTION_DOT":"0.00028459","CENTER_NAME":"EARTH","OBJECT_ID":"2021-009AY","MEAN_MOTION_DDOT":"0.0000000000000","COUNTRY_CODE":"US","FILE":"3921192","NORAD_CAT_ID":"47594","TLE_LINE1":"1 47594U 21009AY  23150.66667344  .00028459  00000-0  19208-2 0  9994","OBJECT_NAME":"STARLINK-1999","EPOCH":"2023-05-30T16:00:00.585216"},{"ECCENTRICITY":"0.00006620","RCS_SIZE":"LARGE","LAUNCH_DATE":"2021-02-04","BSTAR":"0.00091392000000","CLASSIFICATION_TYPE":"U","SITE":"AFETR","MEAN_ELEMENT_THEORY":"SGP4","REF_FRAME":"TEME","PERIAPSIS":"546.693","SEMIMAJOR_AXIS":"6925.287","MEAN_ANOMALY":"284.9823","ELEMENT_SET_NO":"999","TLE_LINE2":"2 47595  53.0535 273.8118 0000662  75.1239 284.9823 15.06420238127674","RA_OF_ASC_NODE":"273.8118","GP_ID":"232850699","PERIOD":"95.591","DECAY_DATE":null,"NORAD_CAT_ID":"47595","TLE_LINE1":"1 47595U 21009AZ  23150.65191455  .00013365  00000-0  91392-3 0  9994","OBJECT_NAME":"STARLINK-2000","EPOCH":"2023-05-30T15:38:45.417120","MEAN_MOTION_DOT":"0.00013365","CENTER_NAME":"EARTH","OBJECT_ID":"2021-009AZ","MEAN_MOTION_DDOT":"0.0000000000000","COUNTRY_CODE":"US","FILE":"3921192","INCLINATION":"53.0535","MEAN_MOTION":"15.06420238","OBJECT_TYPE":"PAYLOAD","TIME_SYSTEM":"UTC","ARG_OF_PERICENTER":"75.1239","EPHEMERIS_TYPE":"0","REV_AT_EPOCH":"12767","APOAPSIS":"547.610"},{"ELEMENT_SET_NO":"999","REF_FRAME":"TEME","PERIAPSIS":"546.589","MEAN_ANOMALY":"284.6396","SEMIMAJOR_AXIS":"6925.263","DECAY_DATE":null,"PERIOD":"95.590","RA_OF_ASC_NODE":"273.4952","TLE_LINE2":"2 47596  53.0534 273.4952 0000779  75.4680 284.6396 15.06427829127684","GP_ID":"232851450","LAUNCH_DATE":"2021-02-04","RCS_SIZE":"LARGE","ECCENTRICITY":"0.00007790","MEAN_ELEMENT_THEORY":"SGP4","BSTAR":"0.00141810000000","SITE":"AFETR","CLASSIFICATION_TYPE":"U","TIME_SYSTEM":"UTC","INCLINATION":"53.0534","MEAN_MOTION":"15.06427829","OBJECT_TYPE":"PAYLOAD","APOAPSIS":"547.668","ARG_OF_PERICENTER":"75.4680","EPHEMERIS_TYPE":"0","REV_AT_EPOCH":"12768","TLE_LINE1":"1 47596U 21009BA  23150.72194883  .00020920  00000-0  14181-2 0  9996","OBJECT_NAME":"STARLINK-2001","EPOCH":"2023-05-30T17:19:36.378912","NORAD_CAT_ID":"47596","MEAN_MOTION_DDOT":"0.0000000000000","OBJECT_ID":"2021-009BA","FILE":"3921192","COUNTRY_CODE":"US","MEAN_MOTION_DOT":"0.00020920","CENTER_NAME":"EARTH"}];
